start=new Date('2022-05-31T00:00:00.000Z').valueOf();
sats=[{"ECCENTRICITY":"0.00018540","RA_OF_ASC_NODE":"321.8802","NORAD_CAT_ID":"47845","MEAN_ELEMENT_THEORY":"SGP4","MEAN_MOTION_DDOT":"0.0000000000000","EPOCH":"2022-05-30T18:16:28.210368","PERIOD":"95.593","CLASSIFICATION_TYPE":"U","SITE":"AFETR","TLE_LINE1":"1 47845U 21018BL  22150.76143762 -.00002845  00000-0 -17218-3 0  9999","PERIAPSIS":"545.964","ELEMENT_SET_NO":"999","MEAN_ANOMALY":"303.3244","OBJECT_TYPE":"PAYLOAD","LAUNCH_DATE":"2021-03-11","APOAPSIS":"548.531","TIME_SYSTEM":"UTC","COUNTRY_CODE":"US","INCLINATION":"53.0546","EPHEMERIS_TYPE":"0","RCS_SIZE":"LARGE","GP_ID":"204978282","REF_FRAME":"TEME","MEAN_MOTION_DOT":"-0.00002845","REV_AT_EPOCH":"6876","DECAY_DATE":null,"TLE_LINE2":"2 47845  53.0546 321.8802 0001854  56.7923 303.3244 15.06388925 68760","BSTAR":"-0.00017218000000","OBJECT_NAME":"STARLINK-2453","OBJECT_ID":"2021-018BL","ARG_OF_PERICENTER":"56.7923","MEAN_MOTION":"15.06388925","SEMIMAJOR_AXIS":"6925.383","FILE":"3472994","CENTER_NAME":"EARTH"},{"MEAN_MOTION_DOT":"-0.00001324","REV_AT_EPOCH":"6882","DECAY_DATE":null,"GP_ID":"204978532","REF_FRAME":"TEME","OBJECT_NAME":"STARLINK-2456","OBJECT_ID":"2021-018BM","TLE_LINE2":"2 47846  53.0563 321.5973 0001696  67.2596 292.8572 15.06398896 68824","BSTAR":"-0.00007001200000","MEAN_MOTION":"15.06398896","SEMIMAJOR_AXIS":"6925.352","ARG_OF_PERICENTER":"67.2596","CENTER_NAME":"EARTH","FILE":"3472994","MEAN_MOTION_DDOT":"0.0000000000000","MEAN_ELEMENT_THEORY":"SGP4","ECCENTRICITY":"0.00016960","RA_OF_ASC_NODE":"321.5973","NORAD_CAT_ID":"47846","EPOCH":"2022-05-30T19:46:41.453760","PERIOD":"95.592","CLASSIFICATION_TYPE":"U","SITE":"AFETR","TLE_LINE1":"1 47846U 21018BM  22150.82409090 -.00001324  00000-0 -70012-4 0  9999","PERIAPSIS":"546.042","EPHEMERIS_TYPE":"0","RCS_SIZE":"LARGE","ELEMENT_SET_NO":"999","MEAN_ANOMALY":"292.8572","OBJECT_TYPE":"PAYLOAD","LAUNCH_DATE":"2021-03-11","APOAPSIS":"548.391","TIME_SYSTEM":"UTC","COUNTRY_CODE":"US","INCLINATION":"53.0563"},{"CENTER_NAME":"EARTH","FILE":"3472994","SEMIMAJOR_AXIS":"6925.272","MEAN_MOTION":"15.06424864","ARG_OF_PERICENTER":"63.7099","OBJECT_ID":"2021-021A","OBJECT_NAME":"STARLINK-2258","BSTAR":"-0.00040014000000","TLE_LINE2":"2 47860  53.0550 351.5688 0001570  63.7099 296.4051 15.06424864 68122","DECAY_DATE":null,"REV_AT_EPOCH":"6812","MEAN_MOTION_DOT":"-0.00006241","REF_FRAME":"TEME","GP_ID":"204977535","RCS_SIZE":"LARGE","EPHEMERIS_TYPE":"0","INCLINATION":"53.0550","COUNTRY_CODE":"US","TIME_SYSTEM":"UTC","APOAPSIS":"548.225","LAUNCH_DATE":"2021-03-14","OBJECT_TYPE":"PAYLOAD","MEAN_ANOMALY":"296.4051","ELEMENT_SET_NO":"999","PERIAPSIS":"546.050","TLE_LINE1":"1 47860U 21021A   22150.82869650 -.00006241  00000-0 -40014-3 0  9992","SITE":"AFETR","CLASSIFICATION_TYPE":"U","PERIOD":"95.591","EPOCH":"2022-05-30T19:53:19.377600","MEAN_MOTION_DDOT":"0.0000000000000","MEAN_ELEMENT_THEORY":"SGP4","NORAD_CAT_ID":"47860","RA_OF_ASC_NODE":"351.5688","ECCENTRICITY":"0.00015700"},{"GP_ID":"204977784","REF_FRAME":"TEME","MEAN_MOTION_DOT":"-0.00001290","REV_AT_EPOCH":"6843","DECAY_DATE":null,"TLE_LINE2":"2 47861  53.0540 336.7851 0001596  64.4778 295.6376 15.06392660 68432","BSTAR":"-0.00006776000000","OBJECT_NAME":"STARLINK-2280","OBJECT_ID":"2021-021B","ARG_OF_PERICENTER":"64.4778","MEAN_MOTION":"15.06392660","SEMIMAJOR_AXIS":"6925.371","FILE":"3472994","CENTER_NAME":"EARTH","ECCENTRICITY":"0.00015960","RA_OF_ASC_NODE":"336.7851","NORAD_CAT_ID":"47861","MEAN_ELEMENT_THEORY":"SGP4","MEAN_MOTION_DDOT":"0.0000000000000","EPOCH":"2022-05-30T18:43:39.645408","PERIOD":"95.593","CLASSIFICATION_TYPE":"U","SITE":"AFETR","TLE_LINE1":"1 47861U 21021B   22150.78031997 -.00001290  00000-0 -67760-4 0  9990","PERIAPSIS":"546.131","MEAN_ANOMALY":"295.6376","ELEMENT_SET_NO":"999","OBJECT_TYPE":"PAYLOAD","LAUNCH_DATE":"2021-03-14","TIME_SYSTEM":"UTC","APOAPSIS":"548.341","INCLINATION":"53.0540","COUNTRY_CODE":"US","EPHEMERIS_TYPE":"0","RCS_SIZE":"LARGE"},{"PERIOD":"95.592","EPOCH":"2022-05-30T19:50:40.373952","ECCENTRICITY":"0.00014850","NORAD_CAT_ID":"47862","RA_OF_ASC_NODE":"331.5857","MEAN_ELEMENT_THEORY":"SGP4","MEAN_MOTION_DDOT":"0.0000000000000","LAUNCH_DATE":"2021-03-14","OBJECT_TYPE":"PAYLOAD","ELEMENT_SET_NO":"999","MEAN_ANOMALY":"288.3085","INCLINATION":"53.0559","COUNTRY_CODE":"US","APOAPSIS":"548.250","TIME_SYSTEM":"UTC","EPHEMERIS_TYPE":"0","RCS_SIZE":"LARGE","SITE":"AFETR","CLASSIFICATION_TYPE":"U","PERIAPSIS":"546.193","TLE_LINE1":"1 47862U 21021C   22150.82685618 -.00001822  00000-0 -10343-3 0  9996","BSTAR":"-0.00010343000000","TLE_LINE2":"2 47862  53.0559 331.5857 0001485  71.8066 288.3085 15.06397532 68025","OBJECT_NAME":"STARLINK-2291","OBJECT_ID":"2021-021C","GP_ID":"204953625","REF_FRAME":"TEME","MEAN_MOTION_DOT":"-0.00001822","DECAY_DATE":null,"REV_AT_EPOCH":"6802","FILE":"3472862","CENTER_NAME":"EARTH","ARG_OF_PERICENTER":"71.8066","MEAN_MOTION":"15.06397532","SEMIMAJOR_AXIS":"6925.356"},{"TIME_SYSTEM":"UTC","APOAPSIS":"548.387","INCLINATION":"53.0563","COUNTRY_CODE":"US","ELEMENT_SET_NO":"999","MEAN_ANOMALY":"291.9596","OBJECT_TYPE":"PAYLOAD","LAUNCH_DATE":"2021-03-14","RCS_SIZE":"LARGE","EPHEMERIS_TYPE":"0","TLE_LINE1":"1 47863U 21021D   22150.78539572 -.00001379  00000-0 -73701-4 0  9994","PERIAPSIS":"546.120","CLASSIFICATION_TYPE":"U","SITE":"AFETR","EPOCH":"2022-05-30T18:50:58.190208","PERIOD":"95.593","RA_OF_ASC_NODE":"341.7753","NORAD_CAT_ID":"47863","ECCENTRICITY":"0.00016370","MEAN_MOTION_DDOT":"0.0000000000000","MEAN_ELEMENT_THEORY":"SGP4","FILE":"3472994","CENTER_NAME":"EARTH","ARG_OF_PERICENTER":"68.1567","SEMIMAJOR_AXIS":"6925.389","MEAN_MOTION":"15.06386925","BSTAR":"-0.00007370100000","TLE_LINE2":"2 47863  53.0563 341.7753 0001637  68.1567 291.9596 15.06386925 68361","OBJECT_ID":"2021-021D","OBJECT_NAME":"STARLINK-2293","REF_FRAME":"TEME","GP_ID":"204977286","REV_AT_EPOCH":"6836","DECAY_DATE":null,"MEAN_MOTION_DOT":"-0.00001379"},{"REV_AT_EPOCH":"6849","DECAY_DATE":null,"MEAN_MOTION_DOT":"0.00001437","GP_ID":"204977036","REF_FRAME":"TEME","OBJECT_ID":"2021-021E","OBJECT_NAME":"STARLINK-2304","BSTAR":"0.00011531000000","TLE_LINE2":"2 47864  53.0550 331.3105 0001453  65.1185 294.9955 15.06407154 68497","SEMIMAJOR_AXIS":"6925.327","MEAN_MOTION":"15.06407154","ARG_OF_PERICENTER":"65.1185","CENTER_NAME":"EARTH","FILE":"3472994","MEAN_ELEMENT_THEORY":"SGP4","MEAN_MOTION_DDOT":"0.0000000000000","RA_OF_ASC_NODE":"331.3105","NORAD_CAT_ID":"47864","ECCENTRICITY":"0.00014530","EPOCH":"2022-05-30T21:31:31.202688","PERIOD":"95.592","TLE_LINE1":"1 47864U 21021E   22150.89688892  .00001437  00000-0  11531-3 0  9992","PERIAPSIS":"546.185","SITE":"AFETR","CLASSIFICATION_TYPE":"U","RCS_SIZE":"LARGE","EPHEMERIS_TYPE":"0","APOAPSIS":"548.198","TIME_SYSTEM":"UTC","INCLINATION":"53.0550","COUNTRY_CODE":"US","ELEMENT_SET_NO":"999","MEAN_ANOMALY":"294.9955","OBJECT_TYPE":"PAYLOAD","LAUNCH_DATE":"2021-03-14"},{"CENTER_NAME":"EARTH","FILE":"3472863","MEAN_MOTION":"15.06864486","SEMIMAJOR_AXIS":"6923.925","ARG_OF_PERICENTER":"64.5256","OBJECT_NAME":"STARLINK-2310","OBJECT_ID":"2021-021F","BSTAR":"0.00362420000000","TLE_LINE2":"2 47865  53.0565 341.2723 0001688  64.5256 295.5907 15.06864486 67906","MEAN_MOTION_DOT":"0.00054808","REV_AT_EPOCH":"6790","DECAY_DATE":null,"REF_FRAME":"TEME","GP_ID":"204953646","EPHEMERIS_TYPE":"0","RCS_SIZE":"LARGE","ELEMENT_SET_NO":"999","MEAN_ANOMALY":"295.5907","OBJECT_TYPE":"PAYLOAD","LAUNCH_DATE":"2021-03-14","APOAPSIS":"546.959","TIME_SYSTEM":"UTC","COUNTRY_CODE":"US","INCLINATION":"53.0565","SITE":"AFETR","CLASSIFICATION_TYPE":"U","TLE_LINE1":"1 47865U 21021F   22150.89172150  .00054808  00000-0  36242-2 0  9993","PERIAPSIS":"544.622","EPOCH":"2022-05-30T21:24:04.737600","PERIOD":"95.563","MEAN_ELEMENT_THEORY":"SGP4","MEAN_MOTION_DDOT":"0.0000000000000","ECCENTRICITY":"0.00016880","RA_OF_ASC_NODE":"341.2723","NORAD_CAT_ID":"47865"},{"SEMIMAJOR_AXIS":"6925.347","MEAN_MOTION":"15.06400502","ARG_OF_PERICENTER":"64.8778","CENTER_NAME":"EARTH","FILE":"3472994","REV_AT_EPOCH":"6852","DECAY_DATE":null,"MEAN_MOTION_DOT":"-0.00001982","REF_FRAME":"TEME","GP_ID":"204978534","OBJECT_ID":"2021-021G","OBJECT_NAME":"STARLINK-2320","TLE_LINE2":"2 47866  53.0550 341.5771 0001922  64.8778 295.2410 15.06400502 68520","BSTAR":"-0.00011419000000","TLE_LINE1":"1 47866U 21021G   22150.82961408 -.00001982  00000-0 -11419-3 0  9996","PERIAPSIS":"545.881","SITE":"AFETR","CLASSIFICATION_TYPE":"U","RCS_SIZE":"LARGE","EPHEMERIS_TYPE":"0","TIME_SYSTEM":"UTC","APOAPSIS":"548.543","COUNTRY_CODE":"US","INCLINATION":"53.0550","ELEMENT_SET_NO":"999","MEAN_ANOMALY":"295.2410","OBJECT_TYPE":"PAYLOAD","LAUNCH_DATE":"2021-03-14","MEAN_MOTION_DDOT":"0.0000000000000","MEAN_ELEMENT_THEORY":"SGP4","RA_OF_ASC_NODE":"341.5771","NORAD_CAT_ID":"47866","ECCENTRICITY":"0.00019220","EPOCH":"2022-05-30T19:54:38.656512","PERIOD":"95.592"},{"APOAPSIS":"548.286","TIME_SYSTEM":"UTC","INCLINATION":"53.0562","COUNTRY_CODE":"US","MEAN_ANOMALY":"296.5203","ELEMENT_SET_NO":"999","OBJECT_TYPE":"PAYLOAD","LAUNCH_DATE":"2021-03-14","RCS_SIZE":"LARGE","EPHEMERIS_TYPE":"0","TLE_LINE1":"1 47867U 21021H   22150.75683316 -.00001185  00000-0 -60691-4 0  9990","PERIAPSIS":"546.219","SITE":"AFETR","CLASSIFICATION_TYPE":"U","EPOCH":"2022-05-30T18:09:50.385024","PERIOD":"95.593","RA_OF_ASC_NODE":"331.8893","NORAD_CAT_ID":"47867","ECCENTRICITY":"0.00014920","MEAN_MOTION_DDOT":"0.0000000000000","MEAN_ELEMENT_THEORY":"SGP4","FILE":"3472994","CENTER_NAME":"EARTH","ARG_OF_PERICENTER":"63.5939","SEMIMAJOR_AXIS":"6925.388","MEAN_MOTION":"15.06387275","TLE_LINE2":"2 47867  53.0562 331.8893 0001492  63.5939 296.5203 15.06387275 68455","BSTAR":"-0.00006069100000","OBJECT_ID":"2021-021H","OBJECT_NAME":"STARLINK-2321","REF_FRAME":"TEME","GP_ID":"204976787","REV_AT_EPOCH":"6845","DECAY_DATE":null,"MEAN_MOTION_DOT":"-0.00001185"}];
